[{"OBJECT_NAME":"STARLINK-30996","OBJECT_ID":"2024-038A","EPOCH":"2026-03-09T06:29:14.747712","MEAN_MOTION":15.27572837,"ECCENTRICITY":4.989e-5,"INCLINATION":43.0041,"RA_OF_ASC_NODE":29.4218,"ARG_OF_PERICENTER":228.237,"MEAN_ANOMALY":131.8439,"EPHEMERIS_TYPE":0,"CLASSIFICATION_TYPE":"U","NORAD_CAT_ID":59023,"ELEMENT_SET_NO":999,"REV_AT_EPOCH":11606,"BSTAR":-3.3911215e-5,"MEAN_MOTION_DOT":-1.195e-5,"MEAN_MOTION_DDOT":0},{"OBJECT_NAME":"KUIPER-00204","OBJECT_ID":"2025-301N","EPOCH":"2026-03-09T09:32:32.981280","MEAN_MOTION":15.260884,"ECCENTRICITY":0.00030716,"INCLINATION":51.887,"RA_OF_ASC_NODE":71.6415,"ARG_OF_PERICENTER":354.8934,"MEAN_ANOMALY":5.2016,"EPHEMERIS_TYPE":0,"CLASSIFICATION_TYPE":"U","NORAD_CAT_ID":67145,"ELEMENT_SET_NO":999,"REV_AT_EPOCH":1373,"BSTAR":0.00079568218,"MEAN_MOTION_DOT":0.00020516,"MEAN_MOTION_DDOT":0}]
